[{"OBJECT_NAME":"ORBCOMM FM16","OBJECT_ID":"1998-046E","EPOCH":"2026-03-05T20:33:22.716288","MEAN_MOTION":14.39822832,"ECCENTRICITY":0.0003024,"INCLINATION":44.9949,"RA_OF_ASC_NODE":9.3571,"ARG_OF_PERICENTER":198.3523,"MEAN_ANOMALY":161.7217,"EPHEMERIS_TYPE":0,"CLASSIFICATION_TYPE":"U","NORAD_CAT_ID":25417,"ELEMENT_SET_NO":999,"REV_AT_EPOCH":44195,"BSTAR":0.00063973,"MEAN_MOTION_DOT":1.884e-5,"MEAN_MOTION_DDOT":0},{"OBJECT_NAME":"ORBCOMM FM15","OBJECT_ID":"1998-046F","EPOCH":"2026-03-05T19:55:18.330528","MEAN_MOTION":14.3944203,"ECCENTRICITY":0.0002728,"INCLINATION":44.9983,"RA_OF_ASC_NODE":15.4349,"ARG_OF_PERICENTER":201.4877,"MEAN_ANOMALY":158.5857,"EPHEMERIS_TYPE":0,"CLASSIFICATION_TYPE":"U","NORAD_CAT_ID":25418,"ELEMENT_SET_NO":999,"REV_AT_EPOCH":44193,"BSTAR":0.00022889,"MEAN_MOTION_DOT":5.77e-6,"MEAN_MOTION_DDOT":0},{"OBJECT_NAME":"ORBCOMM FM14","OBJECT_ID":"1998-046G","EPOCH":"2026-03-05T08:37:15.805344","MEAN_MOTION":14.3988093,"ECCENTRICITY":0.0001567,"INCLINATION":44.9968,"RA_OF_ASC_NODE":15.0846,"ARG_OF_PERICENTER":208.8095,"MEAN_ANOMALY":151.2667,"EPHEMERIS_TYPE":0,"CLASSIFICATION_TYPE":"U","NORAD_CAT_ID":25419,"ELEMENT_SET_NO":999,"REV_AT_EPOCH":44184,"BSTAR":0.00061672,"MEAN_MOTION_DOT":1.813e-5,"MEAN_MOTION_DDOT":0},{"OBJECT_NAME":"ORBCOMM FM13","OBJECT_ID":"1998-046H","EPOCH":"2026-03-05T13:51:09.638496","MEAN_MOTION":14.3843646,"ECCENTRICITY":0.0003222,"INCLINATION":44.9986,"RA_OF_ASC_NODE":24.7484,"ARG_OF_PERICENTER":166.2701,"MEAN_ANOMALY":193.8235,"EPHEMERIS_TYPE":0,"CLASSIFICATION_TYPE":"U","NORAD_CAT_ID":25420,"ELEMENT_SET_NO":999,"REV_AT_EPOCH":44086,"BSTAR":0.00057321,"MEAN_MOTION_DOT":1.623e-5,"MEAN_MOTION_DDOT":0},{"OBJECT_NAME":"ORBCOMM FM21","OBJECT_ID":"1998-053A","EPOCH":"2026-03-05T10:38:38.971968","MEAN_MOTION":14.3800518,"ECCENTRICITY":0.0001101,"INCLINATION":45.0074,"RA_OF_ASC_NODE":111.668,"ARG_OF_PERICENTER":225.4412,"MEAN_ANOMALY":134.6346,"EPHEMERIS_TYPE":0,"CLASSIFICATION_TYPE":"U","NORAD_CAT_ID":25475,"ELEMENT_SET_NO":999,"REV_AT_EPOCH":43484,"BSTAR":0.00046755,"MEAN_MOTION_DOT":1.285e-5,"MEAN_MOTION_DDOT":0},{"OBJECT_NAME":"ORBCOMM FM22","OBJECT_ID":"1998-053B","EPOCH":"2026-03-05T06:36:21.236256","MEAN_MOTION":14.39228246,"ECCENTRICITY":0.0001097,"INCLINATION":45.0065,"RA_OF_ASC_NODE":105.0324,"ARG_OF_PERICENTER":135.8222,"MEAN_ANOMALY":224.2715,"EPHEMERIS_TYPE":0,"CLASSIFICATION_TYPE":"U","NORAD_CAT_ID":25476,"ELEMENT_SET_NO":999,"REV_AT_EPOCH":43487,"BSTAR":0.00052541,"MEAN_MOTION_DOT":1.502e-5,"MEAN_MOTION_DDOT":0},{"OBJECT_NAME":"ORBCOMM FM23","OBJECT_ID":"1998-053C","EPOCH":"2026-03-05T11:22:07.217760","MEAN_MOTION":14.38265632,"ECCENTRICITY":6.69e-5,"INCLINATION":45.0073,"RA_OF_ASC_NODE":113.2053,"ARG_OF_PERICENTER":163.3908,"MEAN_ANOMALY":196.6962,"EPHEMERIS_TYPE":0,"CLASSIFICATION_TYPE":"U","NORAD_CAT_ID":25477,"ELEMENT_SET_NO":999,"REV_AT_EPOCH":43500,"BSTAR":0.00049774,"MEAN_MOTION_DOT":1.385e-5,"MEAN_MOTION_DDOT":0},{"OBJECT_NAME":"ORBCOMM FM24","OBJECT_ID":"1998-053D","EPOCH":"2026-03-05T13:55:05.354976","MEAN_MOTION":14.38912861,"ECCENTRICITY":8.96e-5,"INCLINATION":45.0071,"RA_OF_ASC_NODE":108.9613,"ARG_OF_PERICENTER":190.8187,"MEAN_ANOMALY":169.2643,"EPHEMERIS_TYPE":0,"CLASSIFICATION_TYPE":"U","NORAD_CAT_ID":25478,"ELEMENT_SET_NO":999,"REV_AT_EPOCH":43508,"BSTAR":0.00051682,"MEAN_MOTION_DOT":1.465e-5,"MEAN_MOTION_DDOT":0},{"OBJECT_NAME":"ORBCOMM FM25","OBJECT_ID":"1998-053E","EPOCH":"2026-03-05T10:01:52.912992","MEAN_MOTION":14.38874373,"ECCENTRICITY":0.0002895,"INCLINATION":45.0062,"RA_OF_ASC_NODE":108.0431,"ARG_OF_PERICENTER":144.3469,"MEAN_ANOMALY":215.7574,"EPHEMERIS_TYPE":0,"CLASSIFICATION_TYPE":"U","NORAD_CAT_ID":25479,"ELEMENT_SET_NO":999,"REV_AT_EPOCH":43535,"BSTAR":0.00049457,"MEAN_MOTION_DOT":1.394e-5,"MEAN_MOTION_DDOT":0},{"OBJECT_NAME":"ORBCOMM FM26","OBJECT_ID":"1998-053F","EPOCH":"2026-03-05T11:19:48.004032","MEAN_MOTION":14.37810836,"ECCENTRICITY":0.0005141,"INCLINATION":45.0062,"RA_OF_ASC_NODE":106.2433,"ARG_OF_PERICENTER":153.4309,"MEAN_ANOMALY":206.6803,"EPHEMERIS_TYPE":0,"CLASSIFICATION_TYPE":"U","NORAD_CAT_ID":25480,"ELEMENT_SET_NO":999,"REV_AT_EPOCH":43524,"BSTAR":0.00044517,"MEAN_MOTION_DOT":1.212e-5,"MEAN_MOTION_DDOT":0},{"OBJECT_NAME":"ORBCOMM FM27","OBJECT_ID":"1998-053G","EPOCH":"2026-03-05T11:15:05.086368","MEAN_MOTION":14.38918898,"ECCENTRICITY":0.0001791,"INCLINATION":45.0048,"RA_OF_ASC_NODE":107.9,"ARG_OF_PERICENTER":246.8038,"MEAN_ANOMALY":113.2622,"EPHEMERIS_TYPE":0,"CLASSIFICATION_TYPE":"U","NORAD_CAT_ID":25481,"ELEMENT_SET_NO":999,"REV_AT_EPOCH":43529,"BSTAR":0.00054256,"MEAN_MOTION_DOT":1.545e-5,"MEAN_MOTION_DDOT":0},{"OBJECT_NAME":"ORBCOMM FM28","OBJECT_ID":"1998-053H","EPOCH":"2026-03-05T08:10:58.820448","MEAN_MOTION":14.39014848,"ECCENTRICITY":0.0003674,"INCLINATION":45.006,"RA_OF_ASC_NODE":45.7125,"ARG_OF_PERICENTER":200.0148,"MEAN_ANOMALY":160.0557,"EPHEMERIS_TYPE":0,"CLASSIFICATION_TYPE":"U","NORAD_CAT_ID":25482,"ELEMENT_SET_NO":999,"REV_AT_EPOCH":43596,"BSTAR":0.0004899,"MEAN_MOTION_DOT":1.384e-5,"MEAN_MOTION_DDOT":0},{"OBJECT_NAME":"ORBCOMM FM30","OBJECT_ID":"1999-065A","EPOCH":"2026-03-05T15:22:44.947200","MEAN_MOTION":14.37971678,"ECCENTRICITY":0.0005822,"INCLINATION":45.0316,"RA_OF_ASC_NODE":291.5411,"ARG_OF_PERICENTER":242.7846,"MEAN_ANOMALY":117.2409,"EPHEMERIS_TYPE":0,"CLASSIFICATION_TYPE":"U","NORAD_CAT_ID":25980,"ELEMENT_SET_NO":999,"REV_AT_EPOCH":37207,"BSTAR":0.00040179,"MEAN_MOTION_DOT":1.084e-5,"MEAN_MOTION_DDOT":0},{"OBJECT_NAME":"ORBCOMM FM31","OBJECT_ID":"1999-065B","EPOCH":"2026-03-05T18:22:35.703264","MEAN_MOTION":14.37895042,"ECCENTRICITY":0.0003505,"INCLINATION":45.0225,"RA_OF_ASC_NODE":284.3911,"ARG_OF_PERICENTER":273.1224,"MEAN_ANOMALY":86.9223,"EPHEMERIS_TYPE":0,"CLASSIFICATION_TYPE":"U","NORAD_CAT_ID":25981,"ELEMENT_SET_NO":999,"REV_AT_EPOCH":37164,"BSTAR":0.00040422,"MEAN_MOTION_DOT":1.089e-5,"MEAN_MOTION_DDOT":0},{"OBJECT_NAME":"ORBCOMM FM32","OBJECT_ID":"1999-065C","EPOCH":"2026-03-05T18:37:06.176352","MEAN_MOTION":14.36957412,"ECCENTRICITY":0.0005778,"INCLINATION":45.016,"RA_OF_ASC_NODE":302.6644,"ARG_OF_PERICENTER":268.2079,"MEAN_ANOMALY":91.8108,"EPHEMERIS_TYPE":0,"CLASSIFICATION_TYPE":"U","NORAD_CAT_ID":25982,"ELEMENT_SET_NO":999,"REV_AT_EPOCH":37221,"BSTAR":0.00043345,"MEAN_MOTION_DOT":1.154e-5,"MEAN_MOTION_DDOT":0},{"OBJECT_NAME":"ORBCOMM FM33","OBJECT_ID":"1999-065D","EPOCH":"2026-03-05T17:15:01.380672","MEAN_MOTION":14.40777403,"ECCENTRICITY":0.0008253,"INCLINATION":45.0273,"RA_OF_ASC_NODE":194.829,"ARG_OF_PERICENTER":289.7668,"MEAN_ANOMALY":70.2292,"EPHEMERIS_TYPE":0,"CLASSIFICATION_TYPE":"U","NORAD_CAT_ID":25983,"ELEMENT_SET_NO":999,"REV_AT_EPOCH":37377,"BSTAR":0.00051246,"MEAN_MOTION_DOT":1.513e-5,"MEAN_MOTION_DDOT":0},{"OBJECT_NAME":"ORBCOMM FM36","OBJECT_ID":"1999-065E","EPOCH":"2026-03-05T14:27:01.439136","MEAN_MOTION":14.38970306,"ECCENTRICITY":0.0002444,"INCLINATION":45.039,"RA_OF_ASC_NODE":291.2566,"ARG_OF_PERICENTER":165.3295,"MEAN_ANOMALY":194.7625,"EPHEMERIS_TYPE":0,"CLASSIFICATION_TYPE":"U","NORAD_CAT_ID":25984,"ELEMENT_SET_NO":999,"REV_AT_EPOCH":37206,"BSTAR":0.00052376,"MEAN_MOTION_DOT":1.488e-5,"MEAN_MOTION_DDOT":0}]
